GLOBAL-19               
1 55982U 23041B   26178.03346604  .00013444  00000+0  35497-3 0  9995
2 55982  42.0001 144.4582 0007315  79.6329 280.5335 15.38237578183443
ION SCV-010             
1 56192U 23054Q   26178.19110847  .00005009  00000+0  19555-3 0  9993
2 56192  97.3778  67.5650 0013322 161.7228 198.4492 15.26277987177728
TELEOS-2                
1 56310U 23057C   26177.48719583  .00000682  00000+0 -44617-6 0  9994
2 56310   9.9882 136.4353 0000292 236.2825 123.7361 14.96412318174193
SNIPE 4                 
1 56744U 23072B   26178.13924194  .00019925  00000+0  45789-3 0  9998
2 56744  97.5243  24.4622 0003787 289.8226  70.2613 15.42709038171647
SNIPE 2                 
1 56745U 23072C   26178.21744653  .00027568  00000+0  54021-3 0  9999
2 56745  97.5237  27.6572 0003172 331.2441  28.8633 15.47346412171794
2023-072G               
1 56749U 23072G   26178.19367804  .00032038  00000+0  54965-3 0  9994
2 56749  97.4892  26.4477 0001746 321.9717  38.1411 15.51125256172012
GEISAT PRECURSOR        
1 56934U 23084C   26178.19459932  .00007882  00000+0  23619-3 0  9998
2 56934  97.6228 319.4781 0004216 315.2184  44.8718 15.34781994169068
BLACKJACK ACES-3        
1 56950U 23084U   26178.12039397  .00005947  00000+0  29117-3 0  9997
2 56950  97.6217 313.3872 0001711  10.0096 350.1171 15.18562378168674
BLACKJACK ACES-2        
1 56955U 23084Z   26178.12635475  .00007552  00000+0  36839-3 0  9994
2 56955  97.6213 313.4778 0000693 112.4217 247.7090 15.18595037168681
BLACKJACK ACES-1        
1 56956U 23084AA  26178.11427304  .00007714  00000+0  37645-3 0  9990
2 56956  97.6204 313.2382 0001216 126.5084 233.6262 15.18573774118405
ION SCV-011             
1 56957U 23084AB  26178.07989365  .00005411  00000+0  19552-3 0  9995
2 56957  98.1377   6.2766 0007280  13.9849 346.1589 15.28936669167327
GHOST-3                 
1 56958U 23084AC  26177.98887647  .00018563  00000+0  35414-3 0  9992
2 56958  97.6220 327.0884 0005876 253.6621 106.3983 15.48192848169538
TOMORROW-R2             
1 56962U 23084AG  26178.06802788  .06590774  26690-5  56747-3 0  9996
2 56962  97.5949 343.9369 0011960 262.0269  97.9672 16.39248811170656
AFR-1                   
1 56964U 23084AJ  26178.18248422  .00004866  00000+0  17740-3 0  9997
2 56964  97.6280 315.1146 0009187 308.3775  51.6638 15.28634547168754
METEOR-M2 3             
1 57166U 23091A   26178.21623993  .00000009  00000+0  22775-4 0  9994
2 57166  98.6078 232.9892 0004836 130.9114 229.2484 14.24047573155942
UMKA 1 (RS40S)          
1 57172U 23091G   26178.16038756  .00006694  00000+0  30481-3 0  9990
2 57172  97.5052 236.8193 0014289  86.9277 273.3593 15.20930306165527
2023-091H               
1 57173U 23091H   26178.19769356  .00012573  00000+0  45017-3 0  9995
2 57173  97.5050 241.4712 0011074  82.8352 277.4146 15.28848128165834
2023-091J               
1 57174U 23091J   26178.16859066  .00004529  00000+0  25249-3 0  9998
2 57174  97.5053 231.1227 0014790 111.9084 248.3722 15.13994375165140
CUBEBEL 2 (EU11S)       
1 57175U 23091K   26178.19509058  .00015054  00000+0  52932-3 0  9999
2 57175  97.5054 241.5021 0011059  84.1929 276.0571 15.29398667165838
SITRO-AIS 5 (KATYS)     
1 57176U 23091L   26178.21015529  .00013309  00000+0  46415-3 0  9998
2 57176  97.5063 242.2056 0012365  72.3105 287.9484 15.29680365165878
ZORKIY-2M 1             
1 57177U 23091M   26178.21196009  .00007290  00000+0  33064-3 0  9990
2 57177  97.5092 237.1455 0014767  84.1426 276.1493 15.21031848165522
CUBESX-HSE 3 (RS42S)    
1 57178U 23091N   26178.17161628  .00014367  00000+0  47419-3 0  9997
2 57178  97.5095 243.8856 0011500  63.4891 296.7528 15.31460655165950
MONITOR-3 (RS58S)       
1 57180U 23091Q   26178.15278485  .00011011  00000+0  40432-3 0  9999
2 57180  97.5086 241.6723 0012722  69.8950 290.3656 15.28037026165810
MONITOR-4 (RS57S)       
1 57182U 23091S   26178.19677009  .00011602  00000+0  42472-3 0  9992
2 57182  97.5080 241.6885 0012699  69.9430 290.3175 15.28122656165823
MONITOR-2 (RS39S)       
1 57184U 23091U   26178.19421676  .00005326  00000+0  25733-3 0  9998
2 57184  97.5073 236.4124 0012679  80.8827 279.3842 15.18999949165470
SVYATOBOR 1 (RS60S)     
1 57187U 23091X   26178.15300618  .00009606  00000+0  36707-3 0  9997
2 57187  97.5091 242.0255 0010467  64.2445 295.9873 15.26779304165834
HORS 1                  
1 57188U 23091Y   26178.20337509  .00010258  00000+0  39050-3 0  9992
2 57188  97.5069 241.8371 0009907  64.2285 295.9975 15.26891611165845
VIZARD-METEO (RS38S)    
1 57189U 23091Z   26178.17905312  .00018318  00000+0  51828-3 0  9994
2 57189  97.5095 247.8656 0007499  46.6215 313.5652 15.36335913166229
SITRO-AIS 6 (CHIRKIN)   
1 57192U 23091AC  26178.21233131  .00010735  00000+0  41771-3 0  9997
2 57192  97.5069 241.2734 0012795  75.5547 284.7110 15.26120880165819
SITRO-AIS 8 (ANOKHIN)   
1 57193U 23091AD  26178.20954278  .00016030  00000+0  51345-3 0  9991
2 57193  97.5059 243.8346 0011298  68.7327 291.5120 15.32400090165989
