OBJECT_NAME,OBJECT_ID,EPOCH,MEAN_MOTION,ECCENTRICITY,INCLINATION,RA_OF_ASC_NODE,ARG_OF_PERICENTER,MEAN_ANOMALY,EPHEMERIS_TYPE,CLASSIFICATION_TYPE,NORAD_CAT_ID,ELEMENT_SET_NO,REV_AT_EPOCH,BSTAR,MEAN_MOTION_DOT,MEAN_MOTION_DDOT
GLOBAL-19,2023-041B,2026-06-27T00:48:11.465856,15.38237578,.0007315,42.0001,144.4582,79.6329,280.5335,0,U,55982,999,18344,.35497E-3,.13444E-3,0
ION SCV-010,2023-054Q,2026-06-27T04:35:11.771808,15.26277987,.0013322,97.3778,67.5650,161.7228,198.4492,0,U,56192,999,17772,.19555E-3,.5009E-4,0
TELEOS-2,2023-057C,2026-06-26T11:41:33.719712,14.96412318,.00002923,9.9882,136.4353,236.2825,123.7361,0,U,56310,999,17419,-.446166E-6,.682E-5,0
SNIPE 4,2023-072B,2026-06-27T03:20:30.503616,15.42709038,.0003787,97.5243,24.4622,289.8226,70.2613,0,U,56744,999,17164,.45789E-3,.19925E-3,0
SNIPE 2,2023-072C,2026-06-27T05:13:07.380192,15.47346412,.0003172,97.5237,27.6572,331.2441,28.8633,0,U,56745,999,17179,.54021E-3,.27568E-3,0
2023-072G,2023-072G,2026-06-27T04:38:53.782656,15.51125256,.0001746,97.4892,26.4477,321.9717,38.1411,0,U,56749,999,17201,.54965E-3,.32038E-3,0
GEISAT PRECURSOR,2023-084C,2026-06-27T04:40:13.381248,15.34781994,.0004216,97.6228,319.4781,315.2184,44.8718,0,U,56934,999,16906,.23619E-3,.7882E-4,0
BLACKJACK ACES-3,2023-084U,2026-06-27T02:53:22.039008,15.18562378,.0001711,97.6217,313.3872,10.0096,350.1171,0,U,56950,999,16867,.29117E-3,.5947E-4,0
BLACKJACK ACES-2,2023-084Z,2026-06-27T03:01:57.050400,15.18595037,.0000693,97.6213,313.4778,112.4217,247.7090,0,U,56955,999,16868,.36839E-3,.7552E-4,0
BLACKJACK ACES-1,2023-084AA,2026-06-27T02:44:33.190656,15.18573774,.0001216,97.6204,313.2382,126.5084,233.6262,0,U,56956,999,11840,.37645E-3,.7714E-4,0
ION SCV-011,2023-084AB,2026-06-27T01:55:02.811360,15.28936669,.000728,98.1377,6.2766,13.9849,346.1589,0,U,56957,999,16732,.19552E-3,.5411E-4,0
GHOST-3,2023-084AC,2026-06-26T23:43:58.927008,15.48192848,.0005876,97.6220,327.0884,253.6621,106.3983,0,U,56958,999,16953,.35414E-3,.18563E-3,0
TOMORROW-R2,2023-084AG,2026-06-27T01:37:57.608832,16.39248811,.001196,97.5949,343.9369,262.0269,97.9672,0,U,56962,999,17065,.56747E-3,.6590774E-1,.2669E-5
AFR-1,2023-084AJ,2026-06-27T04:22:46.636608,15.28634547,.0009187,97.6280,315.1146,308.3775,51.6638,0,U,56964,999,16875,.1774E-3,.4866E-4,0
METEOR-M2 3,2023-091A,2026-06-27T05:11:23.129952,14.24047573,.0004836,98.6078,232.9892,130.9114,229.2484,0,U,57166,999,15594,.22775E-4,.9E-7,0
UMKA 1 (RS40S),2023-091G,2026-06-27T03:50:57.485184,15.20930306,.0014289,97.5052,236.8193,86.9277,273.3593,0,U,57172,999,16552,.30481E-3,.6694E-4,0
2023-091H,2023-091H,2026-06-27T04:44:40.723584,15.28848128,.0011074,97.5050,241.4712,82.8352,277.4146,0,U,57173,999,16583,.45017E-3,.12573E-3,0
2023-091J,2023-091J,2026-06-27T04:02:46.233024,15.13994375,.001479,97.5053,231.1227,111.9084,248.3722,0,U,57174,999,16514,.25249E-3,.4529E-4,0
CUBEBEL 2 (EU11S),2023-091K,2026-06-27T04:40:55.826112,15.29398667,.0011059,97.5054,241.5021,84.1929,276.0571,0,U,57175,999,16583,.52932E-3,.15054E-3,0
SITRO-AIS 5 (KATYS),2023-091L,2026-06-27T05:02:37.417056,15.29680365,.0012365,97.5063,242.2056,72.3105,287.9484,0,U,57176,999,16587,.46415E-3,.13309E-3,0
ZORKIY-2M 1,2023-091M,2026-06-27T05:05:13.351776,15.21031848,.0014767,97.5092,237.1455,84.1426,276.1493,0,U,57177,999,16552,.33064E-3,.729E-4,0
CUBESX-HSE 3 (RS42S),2023-091N,2026-06-27T04:07:07.646592,15.31460655,.00115,97.5095,243.8856,63.4891,296.7528,0,U,57178,999,16595,.47419E-3,.14367E-3,0
MONITOR-3 (RS58S),2023-091Q,2026-06-27T03:40:00.611040,15.28037026,.0012722,97.5086,241.6723,69.8950,290.3656,0,U,57180,999,16581,.40432E-3,.11011E-3,0
MONITOR-4 (RS57S),2023-091S,2026-06-27T04:43:20.935776,15.28122656,.0012699,97.5080,241.6885,69.9430,290.3175,0,U,57182,999,16582,.42472E-3,.11602E-3,0
MONITOR-2 (RS39S),2023-091U,2026-06-27T04:39:40.328064,15.18999949,.0012679,97.5073,236.4124,80.8827,279.3842,0,U,57184,999,16547,.25733E-3,.5326E-4,0
SVYATOBOR 1 (RS60S),2023-091X,2026-06-27T03:40:19.733952,15.26779304,.0010467,97.5091,242.0255,64.2445,295.9873,0,U,57187,999,16583,.36707E-3,.9606E-4,0
HORS 1,2023-091Y,2026-06-27T04:52:51.607776,15.26891611,.0009907,97.5069,241.8371,64.2285,295.9975,0,U,57188,999,16584,.3905E-3,.10258E-3,0
VIZARD-METEO (RS38S),2023-091Z,2026-06-27T04:17:50.189568,15.36335913,.0007499,97.5095,247.8656,46.6215,313.5652,0,U,57189,999,16622,.51828E-3,.18318E-3,0
SITRO-AIS 6 (CHIRKIN),2023-091AC,2026-06-27T05:05:45.425184,15.26120880,.0012795,97.5069,241.2734,75.5547,284.7110,0,U,57192,999,16581,.41771E-3,.10735E-3,0
SITRO-AIS 8 (ANOKHIN),2023-091AD,2026-06-27T05:01:44.496192,15.32400090,.0011298,97.5059,243.8346,68.7327,291.5120,0,U,57193,999,16598,.51345E-3,.1603E-3,0
